[{"OBJECT_NAME":"STARLINK-36255","OBJECT_ID":"2025-299A","EPOCH":"2026-03-09T18:01:54.203520","MEAN_MOTION":15.30999452,"ECCENTRICITY":0.00019102,"INCLINATION":43.0001,"RA_OF_ASC_NODE":168.8294,"ARG_OF_PERICENTER":290.3386,"MEAN_ANOMALY":69.7262,"EPHEMERIS_TYPE":0,"CLASSIFICATION_TYPE":"U","NORAD_CAT_ID":67102,"ELEMENT_SET_NO":999,"REV_AT_EPOCH":1312,"BSTAR":-0.011338203,"MEAN_MOTION_DOT":-0.00332006,"MEAN_MOTION_DDOT":0},{"OBJECT_NAME":"FENGYUN 1C DEB","OBJECT_ID":"1999-025BZU","EPOCH":"2026-03-09T17:19:51.665664","MEAN_MOTION":15.28412118,"ECCENTRICITY":0.00188802,"INCLINATION":98.9598,"RA_OF_ASC_NODE":354.2029,"ARG_OF_PERICENTER":82.3682,"MEAN_ANOMALY":277.9697,"EPHEMERIS_TYPE":0,"CLASSIFICATION_TYPE":"U","NORAD_CAT_ID":31614,"ELEMENT_SET_NO":999,"REV_AT_EPOCH":97742,"BSTAR":0.011500831,"MEAN_MOTION_DOT":0.0033373,"MEAN_MOTION_DDOT":0}]
